[{"OBJECT_NAME":"ASTROCAST-0403","OBJECT_ID":"2023-001DG","EPOCH":"2026-03-09T19:45:35.762976","MEAN_MOTION":15.28004949,"ECCENTRICITY":0.00047706,"INCLINATION":97.5604,"RA_OF_ASC_NODE":161.3228,"ARG_OF_PERICENTER":338.0704,"MEAN_ANOMALY":22.033,"EPHEMERIS_TYPE":0,"CLASSIFICATION_TYPE":"U","NORAD_CAT_ID":55111,"ELEMENT_SET_NO":999,"REV_AT_EPOCH":12937,"BSTAR":0.0005131719,"MEAN_MOTION_DOT":0.00013959,"MEAN_MOTION_DDOT":0},{"OBJECT_NAME":"STARLINK-31615","OBJECT_ID":"2024-064R","EPOCH":"2026-03-08T05:48:26.860320","MEAN_MOTION":15.27584219,"ECCENTRICITY":0.00011088,"INCLINATION":43.0017,"RA_OF_ASC_NODE":57.4665,"ARG_OF_PERICENTER":254.627,"MEAN_ANOMALY":105.4459,"EPHEMERIS_TYPE":0,"CLASSIFICATION_TYPE":"U","NORAD_CAT_ID":59413,"ELEMENT_SET_NO":999,"REV_AT_EPOCH":10908,"BSTAR":7.4625094e-5,"MEAN_MOTION_DOT":1.792e-5,"MEAN_MOTION_DDOT":0}]
